PHOENIX                 
1 42706U 98067LP  17242.42374908  .00023309  00000-0  31783-3 0  9994
2 42706  51.6407  26.6630 0001506 215.5758 144.5134 15.57394896 16413
X-CUBESAT               
1 42707U 98067LQ  17242.42424012  .00021875  00000-0  29812-3 0  9993
2 42707  51.6400  26.6624 0001573 216.1428 143.9458 15.57450518 16400
QBEE50-LTU-OC           
1 42708U 98067LR  17242.42684943  .00021575  00000-0  29472-3 0  9994
2 42708  51.6400  26.6804 0001597 217.5956 142.4925 15.57396817 16367
ALTAIR PATHFINDER       
1 42711U 98067LS  17242.40760879  .00017521  00000-0  25004-3 0  9992
2 42711  51.6400  27.2978 0004485 175.3746 184.7287 15.56362489 16061
SHARC                   
1 42712U 98067LT  17242.40669498  .00017618  00000-0  25279-3 0  9999
2 42712  51.6407  27.2968 0002498 174.7599 185.3419 15.56215376 16302
ZA-AEROSAT              
1 42713U 98067LU  17242.44783127  .00018702  00000-0  26131-3 0  9993
2 42713  51.6403  26.8201 0002369 171.5493 188.5539 15.56889940 16075
LINK                    
1 42714U 98067LV  17242.43500852  .00030150  00000-0  40619-3 0  9993
2 42714  51.6395  26.7316 0002345 183.4060 176.6917 15.57565654 16182
CSUNSAT 1               
1 42715U 98067LW  17242.45405770  .00020345  00000-0  28368-3 0  9991
2 42715  51.6398  26.8579 0004502 167.1752 192.9355 15.56877421 16074
UPSAT                   
1 42716U 98067LX  17242.42054247  .00026911  00000-0  36147-3 0  9997
2 42716  51.6403  26.6382 0004605 243.9703 116.0815 15.57702609 16204
SPACECUBE               
1 42717U 98067LY  17242.49952437  .00020291  00000-0  27904-3 0  9999
2 42717  51.6400  26.4147 0004497 243.6030 116.4500 15.57252440 15452
HOOPOE                  
1 42718U 98067LZ  17242.42813117  .00023357  00000-0  31732-3 0  9994
2 42718  51.6401  26.6894 0004577 241.7197 118.3333 15.57484218 15441
CHALLENGER              
1 42721U 98067MA  17242.43181914  .00031852  00000-0  42336-3 0  9993
2 42721  51.6396  26.7091 0007606 224.1189 135.9197 15.57871758 15149
NJUST-1                 
1 42722U 98067MB  17242.40398035  .00019595  00000-0  27600-3 0  9992
2 42722  51.6401  27.2742 0007431 222.8752 137.1661 15.56614537 15131
UNSW-ECO                
1 42723U 98067MC  17242.45267770  .00023905  00000-0  32789-3 0  9993
2 42723  51.6402  26.8514 0007420 223.1422 136.8989 15.57194885 15129
DUTHSAT                 
1 42724U 98067MD  17242.43996672  .00030338  00000-0  40632-3 0  9996
2 42724  51.6402  26.7654 0006627 226.9575 133.0863 15.57701471 15048
LILACSAT-1              
1 42725U 98067ME  17242.40567487  .00021283  00000-0  29823-3 0  9990
2 42725  51.6405  27.2874 0006466 226.7357 133.3096 15.56701641 15037
NSIGHT-1                
1 42726U 98067MF  17242.42745811  .00010586  00000-0  15633-3 0  9990
2 42726  51.6409  27.4337 0006314 226.1598 133.8873 15.55930985 15044
SNUSAT-1                
1 42727U 98067MG  17242.01916573  .00020922  00000-0  29255-3 0  9991
2 42727  51.6397  29.1996 0007892 185.8038 174.2863 15.56760544 14942
QBITO                   
1 42728U 98067MH  17242.39233276  .00023067  00000-0  31877-3 0  9991
2 42728  51.6407  27.2015 0003727 233.5272 126.5376 15.57035915 14846
AALTO-2                 
1 42729U 98067MJ  17242.52051305  .00021495  00000-0  29753-3 0  9991
2 42729  51.6405  26.5551 0003694 234.4916 125.5731 15.57040214 14875
SUSAT                   
1 42730U 98067MK  17242.39572463  .00022785  00000-0  31651-3 0  9994
2 42730  51.6403  27.2203 0003761 230.4047 129.6613 15.56904286 14841
I-INSPIRE II            
1 42731U 98067ML  17242.00085583  .00030114  00000-0  40920-3 0  9999
2 42731  51.6396  29.0770 0007172 174.0771 186.0307 15.57313802 14834
POLYITAN-2-SAU          
1 42732U 98067MM  17242.38989334  .00023860  00000-0  32840-3 0  9990
2 42732  51.6393  27.1743 0007273 174.2624 185.8452 15.57104594 14892
SNUSAT-1B               
1 42733U 98067MN  17242.39652999  .00023419  00000-0  32454-3 0  9997
2 42733  51.6397  27.2192 0007185 175.1171 184.9892 15.56932915 14898
EXALTA-1                
1 42734U 98067MP  17242.45000738  .00026260  00000-0  35802-3 0  9990
2 42734  51.6397  26.8278 0008898 199.3926 160.6729 15.57286073 14851
AOXIANG-1               
1 42735U 98067MQ  17241.82402114  .00016695  00000-0  23587-3 0  9993
2 42735  51.6403  30.1502 0008098 217.3080 142.7350 15.56652873 16174
BEEAGLESAT              
1 42736U 98067MR  17242.01508270  .00018609  00000-0  26096-3 0  9991
2 42736  51.6402  29.1762 0008015 217.4820 142.5613 15.56767405 14897
ATLANTIS                
1 42737U 98067MS  17242.40312274  .00050895  00000-0  64224-3 0  9990
2 42737  51.6387  26.5139 0007988 221.4578 138.5810 15.59028974 14856
PROGRESS-MS 06          
1 42756U 17033A   17241.55262733  .00002103  00000-0  39179-4 0  9995
2 42756  51.6431  32.5878 0004387 203.6920 273.4398 15.54005596 11854
ISS DEB (ROSA)          
1 42813U 98067MT  17241.79548626  .00048990  00000-0  66292-3 0  9998
2 42813  51.6397  30.7084 0004760 201.1885 158.8911 15.57207647 73215
SOYUZ-MS 05             
1 42898U 17043A   17241.55262733  .00002103  00000-0  39179-4 0  9993
2 42898  51.6431  32.5878 0004387 203.6920 273.4398 15.54005596  4965
DRAGON CRS-12           
1 42904U 17045A   17241.55262733  .00002103  00000-0  39179-4 0  9993
2 42904  51.6431  32.5878 0004387 203.6920 273.4398 15.54005596  2310
